start=new Date('2023-04-22T00:00:00.000Z').valueOf();
sats=[{"NORAD_CAT_ID":"55332","EPOCH":"2023-04-22T00:00:02.000160","ELEMENT_SET_NO":"999","BSTAR":"-0.03127100000000","REF_FRAME":"TEME","SITE":"AFETR","MEAN_ANOMALY":"200.4610","RA_OF_ASC_NODE":"249.9253","TIME_SYSTEM":"UTC","APOAPSIS":"464.794","FILE":"3891716","MEAN_MOTION_DDOT":"0.0000000000000","MEAN_MOTION":"15.34031235","RCS_SIZE":"LARGE","LAUNCH_DATE":"2023-01-26","CENTER_NAME":"EARTH","MEAN_MOTION_DOT":"-0.00972617","PERIOD":"93.870","ECCENTRICITY":"0.00014500","INCLINATION":"42.9995","ARG_OF_PERICENTER":"282.3829","CLASSIFICATION_TYPE":"U","TLE_LINE1":"1 55332U 23013B   23112.00002315 -.00972617  00000-0 -31271-1 0  9996","SEMIMAJOR_AXIS":"6841.937","GP_ID":"230530812","COUNTRY_CODE":"US","TLE_LINE2":"2 55332  42.9995 249.9253 0001450 282.3829 200.4610 15.34031235  1300","PERIAPSIS":"462.809","OBJECT_ID":"2023-013B","EPHEMERIS_TYPE":"0","REV_AT_EPOCH":"130","OBJECT_NAME":"STARLINK-5491","OBJECT_TYPE":"PAYLOAD","DECAY_DATE":null,"MEAN_ELEMENT_THEORY":"SGP4"},{"ARG_OF_PERICENTER":"287.7597","ECCENTRICITY":"0.00018540","INCLINATION":"43.0007","TLE_LINE1":"1 55333U 23013C   23111.80144647 -.00007959  00000-0 -54608-3 0  9998","SEMIMAJOR_AXIS":"6931.377","GP_ID":"230530557","COUNTRY_CODE":"US","CLASSIFICATION_TYPE":"U","RCS_SIZE":"LARGE","PERIOD":"95.717","MEAN_MOTION_DOT":"-0.00007959","LAUNCH_DATE":"2023-01-26","CENTER_NAME":"EARTH","REV_AT_EPOCH":"1332","EPHEMERIS_TYPE":"0","DECAY_DATE":null,"MEAN_ELEMENT_THEORY":"SGP4","OBJECT_NAME":"STARLINK-5493","OBJECT_TYPE":"PAYLOAD","PERIAPSIS":"551.957","TLE_LINE2":"2 55333  43.0007 261.7784 0001854 287.7597  72.3044 15.04435149 13328","OBJECT_ID":"2023-013C","MEAN_ANOMALY":"72.3044","RA_OF_ASC_NODE":"261.7784","ELEMENT_SET_NO":"999","BSTAR":"-0.00054608000000","NORAD_CAT_ID":"55333","EPOCH":"2023-04-21T19:14:04.975008","REF_FRAME":"TEME","SITE":"AFETR","MEAN_MOTION":"15.04435149","TIME_SYSTEM":"UTC","MEAN_MOTION_DDOT":"0.0000000000000","APOAPSIS":"554.527","FILE":"3891716"},{"ECCENTRICITY":"0.00013660","INCLINATION":"42.9993","ARG_OF_PERICENTER":"281.9136","TLE_LINE1":"1 55334U 23013D   23112.00002315 -.00750202  00000-0 -44154-1 0  9996","GP_ID":"230531307","SEMIMAJOR_AXIS":"6903.192","COUNTRY_CODE":"US","CLASSIFICATION_TYPE":"U","RCS_SIZE":"LARGE","MEAN_MOTION_DOT":"-0.00750202","PERIOD":"95.134","LAUNCH_DATE":"2023-01-26","CENTER_NAME":"EARTH","REV_AT_EPOCH":"130","EPHEMERIS_TYPE":"0","MEAN_ELEMENT_THEORY":"SGP4","DECAY_DATE":null,"OBJECT_NAME":"STARLINK-5652","OBJECT_TYPE":"PAYLOAD","PERIAPSIS":"524.114","TLE_LINE2":"2 55334  42.9993 256.8646 0001366 281.9136 233.7040 15.13658251  1301","OBJECT_ID":"2023-013D","MEAN_ANOMALY":"233.7040","RA_OF_ASC_NODE":"256.8646","BSTAR":"-0.04415400000000","ELEMENT_SET_NO":"999","EPOCH":"2023-04-22T00:00:02.000160","NORAD_CAT_ID":"55334","SITE":"AFETR","REF_FRAME":"TEME","MEAN_MOTION":"15.13658251","TIME_SYSTEM":"UTC","MEAN_MOTION_DDOT":"0.0000000000000","FILE":"3891716","APOAPSIS":"526.000"},{"OBJECT_ID":"2023-013E","PERIAPSIS":"556.213","TLE_LINE2":"2 55335  43.0014 261.7632 0000812 276.9600  83.1150 15.03285205 13321","DECAY_DATE":null,"MEAN_ELEMENT_THEORY":"SGP4","OBJECT_TYPE":"PAYLOAD","OBJECT_NAME":"STARLINK-5660","REV_AT_EPOCH":"1332","EPHEMERIS_TYPE":"0","MEAN_MOTION_DOT":"-0.00122761","PERIOD":"95.790","LAUNCH_DATE":"2023-01-26","CENTER_NAME":"EARTH","RCS_SIZE":"LARGE","TLE_LINE1":"1 55335U 23013E   23111.79902003 -.00122761  00000-0 -90502-2 0  9997","GP_ID":"230531559","COUNTRY_CODE":"US","SEMIMAJOR_AXIS":"6934.911","CLASSIFICATION_TYPE":"U","INCLINATION":"43.0014","ECCENTRICITY":"0.00008120","ARG_OF_PERICENTER":"276.9600","MEAN_MOTION_DDOT":"0.0000000000000","APOAPSIS":"557.340","FILE":"3891716","TIME_SYSTEM":"UTC","MEAN_MOTION":"15.03285205","REF_FRAME":"TEME","SITE":"AFETR","ELEMENT_SET_NO":"999","BSTAR":"-0.00905020000000","NORAD_CAT_ID":"55335","EPOCH":"2023-04-21T19:10:35.330592","RA_OF_ASC_NODE":"261.7632","MEAN_ANOMALY":"83.1150"},{"REF_FRAME":"TEME","SITE":"AFETR","NORAD_CAT_ID":"55336","EPOCH":"2023-04-22T00:00:02.000160","ELEMENT_SET_NO":"999","BSTAR":"-0.02695100000000","RA_OF_ASC_NODE":"248.7729","MEAN_ANOMALY":"311.6035","APOAPSIS":"464.130","FILE":"3891716","MEAN_MOTION_DDOT":"0.0000000000000","TIME_SYSTEM":"UTC","MEAN_MOTION":"15.34245563","CENTER_NAME":"EARTH","LAUNCH_DATE":"2023-01-26","PERIOD":"93.857","MEAN_MOTION_DOT":"-0.00842711","RCS_SIZE":"LARGE","CLASSIFICATION_TYPE":"U","TLE_LINE1":"1 55336U 23013F   23112.00002315 -.00842711  00000-0 -26951-1 0  9990","SEMIMAJOR_AXIS":"6841.299","GP_ID":"230530312","COUNTRY_CODE":"US","INCLINATION":"43.0003","ECCENTRICITY":"0.00014120","ARG_OF_PERICENTER":"272.8965","OBJECT_ID":"2023-013F","TLE_LINE2":"2 55336  43.0003 248.7729 0001412 272.8965 311.6035 15.34245563  1301","PERIAPSIS":"462.198","OBJECT_TYPE":"PAYLOAD","OBJECT_NAME":"STARLINK-5655","DECAY_DATE":null,"MEAN_ELEMENT_THEORY":"SGP4","EPHEMERIS_TYPE":"0","REV_AT_EPOCH":"130"},{"INCLINATION":"42.9983","ECCENTRICITY":"0.00015410","ARG_OF_PERICENTER":"277.4704","TLE_LINE1":"1 55337U 23013G   23112.00002315 -.00976083  00000-0 -33254-1 0  9995","GP_ID":"230531058","SEMIMAJOR_AXIS":"6847.337","COUNTRY_CODE":"US","CLASSIFICATION_TYPE":"U","RCS_SIZE":"LARGE","PERIOD":"93.981","MEAN_MOTION_DOT":"-0.00976083","LAUNCH_DATE":"2023-01-26","CENTER_NAME":"EARTH","REV_AT_EPOCH":"130","EPHEMERIS_TYPE":"0","DECAY_DATE":null,"MEAN_ELEMENT_THEORY":"SGP4","OBJECT_NAME":"STARLINK-5667","OBJECT_TYPE":"PAYLOAD","PERIAPSIS":"468.147","TLE_LINE2":"2 55337  42.9983 249.3801 0001541 277.4704  61.2029 15.32216772  1309","OBJECT_ID":"2023-013G","MEAN_ANOMALY":"61.2029","RA_OF_ASC_NODE":"249.3801","ELEMENT_SET_NO":"999","BSTAR":"-0.03325400000000","NORAD_CAT_ID":"55337","EPOCH":"2023-04-22T00:00:02.000160","REF_FRAME":"TEME","SITE":"AFETR","MEAN_MOTION":"15.32216772","TIME_SYSTEM":"UTC","MEAN_MOTION_DDOT":"0.0000000000000","APOAPSIS":"470.257","FILE":"3891716"},{"TLE_LINE2":"2 55338  43.0005 261.7453 0001536 276.0069  84.0599 15.04489399 13327","PERIAPSIS":"552.011","OBJECT_ID":"2023-013H","EPHEMERIS_TYPE":"0","REV_AT_EPOCH":"1332","OBJECT_TYPE":"PAYLOAD","OBJECT_NAME":"STARLINK-5658","MEAN_ELEMENT_THEORY":"SGP4","DECAY_DATE":null,"RCS_SIZE":"LARGE","LAUNCH_DATE":"2023-01-26","CENTER_NAME":"EARTH","PERIOD":"95.714","MEAN_MOTION_DOT":"0.00000188","ARG_OF_PERICENTER":"276.0069","INCLINATION":"43.0005","ECCENTRICITY":"0.00015360","CLASSIFICATION_TYPE":"U","GP_ID":"230531808","TLE_LINE1":"1 55338U 23013H   23111.79671702  .00000188  00000-0  27809-4 0  9997","COUNTRY_CODE":"US","SEMIMAJOR_AXIS":"6931.210","TIME_SYSTEM":"UTC","FILE":"3891716","APOAPSIS":"554.140","MEAN_MOTION_DDOT":"0.0000000000000","MEAN_MOTION":"15.04489399","EPOCH":"2023-04-21T19:07:16.350528","NORAD_CAT_ID":"55338","BSTAR":"0.00002780900000","ELEMENT_SET_NO":"999","SITE":"AFETR","REF_FRAME":"TEME","MEAN_ANOMALY":"84.0599","RA_OF_ASC_NODE":"261.7453"},{"FILE":"3891716","APOAPSIS":"560.201","MEAN_MOTION_DDOT":"0.0000000000000","TIME_SYSTEM":"UTC","MEAN_MOTION":"15.02530796","SITE":"AFETR","REF_FRAME":"TEME","EPOCH":"2023-04-22T00:00:02.000160","NORAD_CAT_ID":"55339","BSTAR":"0.00100980000000","ELEMENT_SET_NO":"999","RA_OF_ASC_NODE":"260.5496","MEAN_ANOMALY":"137.3972","OBJECT_ID":"2023-013J","TLE_LINE2":"2 55339  43.0004 260.5496 0001590 280.9289 137.3972 15.02530796  1307","PERIAPSIS":"557.995","OBJECT_TYPE":"PAYLOAD","OBJECT_NAME":"STARLINK-5671","MEAN_ELEMENT_THEORY":"SGP4","DECAY_DATE":null,"EPHEMERIS_TYPE":"0","REV_AT_EPOCH":"130","LAUNCH_DATE":"2023-01-26","CENTER_NAME":"EARTH","PERIOD":"95.838","MEAN_MOTION_DOT":"0.00013461","RCS_SIZE":"LARGE","CLASSIFICATION_TYPE":"U","GP_ID":"230532060","TLE_LINE1":"1 55339U 23013J   23112.00002315  .00013461  00000-0  10098-2 0  9999","SEMIMAJOR_AXIS":"6937.233","COUNTRY_CODE":"US","ECCENTRICITY":"0.00015900","INCLINATION":"43.0004","ARG_OF_PERICENTER":"280.9289"},{"REF_FRAME":"TEME","SITE":"AFETR","ELEMENT_SET_NO":"999","BSTAR":"0.00101970000000","NORAD_CAT_ID":"55340","EPOCH":"2023-04-22T00:00:02.000160","RA_OF_ASC_NODE":"260.5220","MEAN_ANOMALY":"166.0470","MEAN_MOTION_DDOT":"0.0000000000000","APOAPSIS":"560.118","FILE":"3891716","TIME_SYSTEM":"UTC","MEAN_MOTION":"15.02523910","PERIOD":"95.839","MEAN_MOTION_DOT":"0.00013593","LAUNCH_DATE":"2023-01-26","CENTER_NAME":"EARTH","RCS_SIZE":"LARGE","GP_ID":"230530813","TLE_LINE1":"1 55340U 23013K   23112.00002315  .00013593  00000-0  10197-2 0  9997","SEMIMAJOR_AXIS":"6937.254","COUNTRY_CODE":"US","CLASSIFICATION_TYPE":"U","ECCENTRICITY":"0.00014410","INCLINATION":"43.0006","ARG_OF_PERICENTER":"264.3242","OBJECT_ID":"2023-013K","PERIAPSIS":"558.119","TLE_LINE2":"2 55340  43.0006 260.5220 0001441 264.3242 166.0470 15.02523910  1308","MEAN_ELEMENT_THEORY":"SGP4","DECAY_DATE":null,"OBJECT_NAME":"STARLINK-5675","OBJECT_TYPE":"PAYLOAD","REV_AT_EPOCH":"130","EPHEMERIS_TYPE":"0"},{"RA_OF_ASC_NODE":"261.7378","MEAN_ANOMALY":"86.9000","SITE":"AFETR","REF_FRAME":"TEME","EPOCH":"2023-04-21T19:06:07.865568","NORAD_CAT_ID":"55341","BSTAR":"0.00003884400000","ELEMENT_SET_NO":"999","MEAN_MOTION":"15.04491453","FILE":"3891716","APOAPSIS":"554.223","MEAN_MOTION_DDOT":"0.0000000000000","TIME_SYSTEM":"UTC","CLASSIFICATION_TYPE":"U","SEMIMAJOR_AXIS":"6931.204","TLE_LINE1":"1 55341U 23013L   23111.79592437  .00000345  00000-0  38844-4 0  9994","GP_ID":"230530558","COUNTRY_CODE":"US","ECCENTRICITY":"0.00016640","ARG_OF_PERICENTER":"273.1652","INCLINATION":"43.0005","LAUNCH_DATE":"2023-01-26","CENTER_NAME":"EARTH","PERIOD":"95.713","MEAN_MOTION_DOT":"0.00000345","RCS_SIZE":"LARGE","OBJECT_NAME":"STARLINK-5670","OBJECT_TYPE":"PAYLOAD","DECAY_DATE":null,"MEAN_ELEMENT_THEORY":"SGP4","EPHEMERIS_TYPE":"0","REV_AT_EPOCH":"1332","OBJECT_ID":"2023-013L","TLE_LINE2":"2 55341  43.0005 261.7378 0001664 273.1652  86.9000 15.04491453 13327","PERIAPSIS":"551.916"}];
